STARLINK-36810          
1 67898U 26035V   26070.16667824 -.01248676  00000+0 -66306-2 0  9997
2 67898  97.2681   2.6119 0001353  91.0194 315.6860 15.83053374  3997
STARLINK-36878          
1 67899U 26035W   26070.16667824 -.01270792  00000+0 -67892-2 0  9993
2 67899  97.2676   2.6154 0001419 101.7434 313.8144 15.82972213  3996
STARLINK-36361          
1 67900U 26035X   26070.16667824 -.01336417  00000+0 -72039-2 0  9992
2 67900  97.2675   2.6174 0001402  97.5283 322.5366 15.82927631  3993
STARLINK-36336          
1 67901U 26035Y   26070.16667824 -.01297177  00000+0 -70751-2 0  9991
2 67901  97.2682   2.6254 0001332  96.9124 336.7288 15.82592028  4045
STARLINK-36876          
1 67902U 26035Z   26070.16667824 -.01368114  00000+0 -74111-2 0  9996
2 67902  97.2682   2.6209 0001298  97.9529 326.5147 15.82895692  3994
STARLINK-36257          
1 67903U 26035AA  26070.16667824 -.01389441  00000+0 -75657-2 0  9999
2 67903  97.2679   2.6217 0001262  87.0659 341.8511 15.82834601  4040
STARLINK-36814          
1 67904U 26036A   26070.16667824 -.01982200  00000+0 -18528-1 0  9996
2 67904  42.9991 240.9278 0001784 268.6375  39.1028 15.69476055  3881
STARLINK-36729          
1 67905U 26036B   26070.16667824 -.01954179  00000+0 -12284-1 0  9994
2 67905  42.9995 240.7560 0001791 275.1173 100.9631 15.79003922  3882
STARLINK-36763          
1 67906U 26036C   26069.90995801 -.00381330  00000+0 -19336-2 0  9992
2 67906  42.9984 242.3100 0003060 296.6307  63.4251 15.81509246  3869
STARLINK-36742          
1 67907U 26036D   26069.53034784  .00670159  00000+0  28999-2 0  9999
2 67907  42.9985 244.6248 0003915 243.6251 116.4219 15.82352005  3805
STARLINK-36827          
1 67908U 26036E   26069.84524742  .00210941  00000+0  97500-3 0  9996
2 67908  42.9985 242.6849 0002267 279.6488  80.4127 15.82126491  3852
STARLINK-36822          
1 67909U 26036F   26070.16667824 -.01953922  00000+0 -11964-1 0  9997
2 67909  42.9993 240.7107 0001456 272.6993 121.8351 15.79577029  3886
