CCSDS_OMM_VERS = 2.0
CREATION_DATE  = 
ORIGINATOR     = 

OBJECT_NAME    = STARLINK-36810
OBJECT_ID      = 2026-035V
CENTER_NAME    = EARTH
REF_FRAME      = TEME
TIME_SYSTEM    = UTC
MEAN_ELEMENT_THEORY = SGP/SGP4

EPOCH          = 2026-03-11T04:00:00.999936
MEAN_MOTION    = 15.83053374
ECCENTRICITY   = .0001353
INCLINATION    = 97.2681
RA_OF_ASC_NODE = 2.6119
ARG_OF_PERICENTER = 91.0194
MEAN_ANOMALY   = 315.6860

EPHEMERIS_TYPE = 0
CLASSIFICATION_TYPE = U
NORAD_CAT_ID   = 67898
ELEMENT_SET_NO = 999
REV_AT_EPOCH   = 399
BSTAR          = -.66306E-2
MEAN_MOTION_DOT = -.1248676E-1
MEAN_MOTION_DDOT = 0

CCSDS_OMM_VERS = 2.0
CREATION_DATE  = 
ORIGINATOR     = 

OBJECT_NAME    = STARLINK-36878
OBJECT_ID      = 2026-035W
CENTER_NAME    = EARTH
REF_FRAME      = TEME
TIME_SYSTEM    = UTC
MEAN_ELEMENT_THEORY = SGP/SGP4

EPOCH          = 2026-03-11T04:00:00.999936
MEAN_MOTION    = 15.82972213
ECCENTRICITY   = .0001419
INCLINATION    = 97.2676
RA_OF_ASC_NODE = 2.6154
ARG_OF_PERICENTER = 101.7434
MEAN_ANOMALY   = 313.8144

EPHEMERIS_TYPE = 0
CLASSIFICATION_TYPE = U
NORAD_CAT_ID   = 67899
ELEMENT_SET_NO = 999
REV_AT_EPOCH   = 399
BSTAR          = -.67892E-2
MEAN_MOTION_DOT = -.1270792E-1
MEAN_MOTION_DDOT = 0

CCSDS_OMM_VERS = 2.0
CREATION_DATE  = 
ORIGINATOR     = 

OBJECT_NAME    = STARLINK-36361
OBJECT_ID      = 2026-035X
CENTER_NAME    = EARTH
REF_FRAME      = TEME
TIME_SYSTEM    = UTC
MEAN_ELEMENT_THEORY = SGP/SGP4

EPOCH          = 2026-03-11T04:00:00.999936
MEAN_MOTION    = 15.82927631
ECCENTRICITY   = .0001402
INCLINATION    = 97.2675
RA_OF_ASC_NODE = 2.6174
ARG_OF_PERICENTER = 97.5283
MEAN_ANOMALY   = 322.5366

EPHEMERIS_TYPE = 0
CLASSIFICATION_TYPE = U
NORAD_CAT_ID   = 67900
ELEMENT_SET_NO = 999
REV_AT_EPOCH   = 399
BSTAR          = -.72039E-2
MEAN_MOTION_DOT = -.1336417E-1
MEAN_MOTION_DDOT = 0

CCSDS_OMM_VERS = 2.0
CREATION_DATE  = 
ORIGINATOR     = 

OBJECT_NAME    = STARLINK-36336
OBJECT_ID      = 2026-035Y
CENTER_NAME    = EARTH
REF_FRAME      = TEME
TIME_SYSTEM    = UTC
MEAN_ELEMENT_THEORY = SGP/SGP4

EPOCH          = 2026-03-11T04:00:00.999936
MEAN_MOTION    = 15.82592028
ECCENTRICITY   = .0001332
INCLINATION    = 97.2682
RA_OF_ASC_NODE = 2.6254
ARG_OF_PERICENTER = 96.9124
MEAN_ANOMALY   = 336.7288

EPHEMERIS_TYPE = 0
CLASSIFICATION_TYPE = U
NORAD_CAT_ID   = 67901
ELEMENT_SET_NO = 999
REV_AT_EPOCH   = 404
BSTAR          = -.70751E-2
MEAN_MOTION_DOT = -.1297177E-1
MEAN_MOTION_DDOT = 0

CCSDS_OMM_VERS = 2.0
CREATION_DATE  = 
ORIGINATOR     = 

OBJECT_NAME    = STARLINK-36876
OBJECT_ID      = 2026-035Z
CENTER_NAME    = EARTH
REF_FRAME      = TEME
TIME_SYSTEM    = UTC
MEAN_ELEMENT_THEORY = SGP/SGP4

EPOCH          = 2026-03-11T04:00:00.999936
MEAN_MOTION    = 15.82895692
ECCENTRICITY   = .0001298
INCLINATION    = 97.2682
RA_OF_ASC_NODE = 2.6209
ARG_OF_PERICENTER = 97.9529
MEAN_ANOMALY   = 326.5147

EPHEMERIS_TYPE = 0
CLASSIFICATION_TYPE = U
NORAD_CAT_ID   = 67902
ELEMENT_SET_NO = 999
REV_AT_EPOCH   = 399
BSTAR          = -.74111E-2
MEAN_MOTION_DOT = -.1368114E-1
MEAN_MOTION_DDOT = 0

CCSDS_OMM_VERS = 2.0
CREATION_DATE  = 
ORIGINATOR     = 

OBJECT_NAME    = STARLINK-36257
OBJECT_ID      = 2026-035AA
CENTER_NAME    = EARTH
REF_FRAME      = TEME
TIME_SYSTEM    = UTC
MEAN_ELEMENT_THEORY = SGP/SGP4

EPOCH          = 2026-03-11T04:00:00.999936
MEAN_MOTION    = 15.82834601
ECCENTRICITY   = .0001262
INCLINATION    = 97.2679
RA_OF_ASC_NODE = 2.6217
ARG_OF_PERICENTER = 87.0659
MEAN_ANOMALY   = 341.8511

EPHEMERIS_TYPE = 0
CLASSIFICATION_TYPE = U
NORAD_CAT_ID   = 67903
ELEMENT_SET_NO = 999
REV_AT_EPOCH   = 404
BSTAR          = -.75657E-2
MEAN_MOTION_DOT = -.1389441E-1
MEAN_MOTION_DDOT = 0

CCSDS_OMM_VERS = 2.0
CREATION_DATE  = 
ORIGINATOR     = 

OBJECT_NAME    = STARLINK-36814
OBJECT_ID      = 2026-036A
CENTER_NAME    = EARTH
REF_FRAME      = TEME
TIME_SYSTEM    = UTC
MEAN_ELEMENT_THEORY = SGP/SGP4

EPOCH          = 2026-03-11T04:00:00.999936
MEAN_MOTION    = 15.69476055
ECCENTRICITY   = .0001784
INCLINATION    = 42.9991
RA_OF_ASC_NODE = 240.9278
ARG_OF_PERICENTER = 268.6375
MEAN_ANOMALY   = 39.1028

EPHEMERIS_TYPE = 0
CLASSIFICATION_TYPE = U
NORAD_CAT_ID   = 67904
ELEMENT_SET_NO = 999
REV_AT_EPOCH   = 388
BSTAR          = -.18528E-1
MEAN_MOTION_DOT = -.19822E-1
MEAN_MOTION_DDOT = 0

CCSDS_OMM_VERS = 2.0
CREATION_DATE  = 
ORIGINATOR     = 

OBJECT_NAME    = STARLINK-36729
OBJECT_ID      = 2026-036B
CENTER_NAME    = EARTH
REF_FRAME      = TEME
TIME_SYSTEM    = UTC
MEAN_ELEMENT_THEORY = SGP/SGP4

EPOCH          = 2026-03-11T04:00:00.999936
MEAN_MOTION    = 15.79003922
ECCENTRICITY   = .0001791
INCLINATION    = 42.9995
RA_OF_ASC_NODE = 240.7560
ARG_OF_PERICENTER = 275.1173
MEAN_ANOMALY   = 100.9631

EPHEMERIS_TYPE = 0
CLASSIFICATION_TYPE = U
NORAD_CAT_ID   = 67905
ELEMENT_SET_NO = 999
REV_AT_EPOCH   = 388
BSTAR          = -.12284E-1
MEAN_MOTION_DOT = -.1954179E-1
MEAN_MOTION_DDOT = 0

CCSDS_OMM_VERS = 2.0
CREATION_DATE  = 
ORIGINATOR     = 

OBJECT_NAME    = STARLINK-36763
OBJECT_ID      = 2026-036C
CENTER_NAME    = EARTH
REF_FRAME      = TEME
TIME_SYSTEM    = UTC
MEAN_ELEMENT_THEORY = SGP/SGP4

EPOCH          = 2026-03-10T21:50:20.372064
MEAN_MOTION    = 15.81509246
ECCENTRICITY   = .000306
INCLINATION    = 42.9984
RA_OF_ASC_NODE = 242.3100
ARG_OF_PERICENTER = 296.6307
MEAN_ANOMALY   = 63.4251

EPHEMERIS_TYPE = 0
CLASSIFICATION_TYPE = U
NORAD_CAT_ID   = 67906
ELEMENT_SET_NO = 999
REV_AT_EPOCH   = 386
BSTAR          = -.19336E-2
MEAN_MOTION_DOT = -.38133E-2
MEAN_MOTION_DDOT = 0

CCSDS_OMM_VERS = 2.0
CREATION_DATE  = 
ORIGINATOR     = 

OBJECT_NAME    = STARLINK-36742
OBJECT_ID      = 2026-036D
CENTER_NAME    = EARTH
REF_FRAME      = TEME
TIME_SYSTEM    = UTC
MEAN_ELEMENT_THEORY = SGP/SGP4

EPOCH          = 2026-03-10T12:43:42.053376
MEAN_MOTION    = 15.82352005
ECCENTRICITY   = .00039151
INCLINATION    = 42.9985
RA_OF_ASC_NODE = 244.6248
ARG_OF_PERICENTER = 243.6251
MEAN_ANOMALY   = 116.4219

EPHEMERIS_TYPE = 0
CLASSIFICATION_TYPE = U
NORAD_CAT_ID   = 67907
ELEMENT_SET_NO = 999
REV_AT_EPOCH   = 380
BSTAR          = .28999316E-2
MEAN_MOTION_DOT = .670159E-2
MEAN_MOTION_DDOT = 0

CCSDS_OMM_VERS = 2.0
CREATION_DATE  = 
ORIGINATOR     = 

OBJECT_NAME    = STARLINK-36827
OBJECT_ID      = 2026-036E
CENTER_NAME    = EARTH
REF_FRAME      = TEME
TIME_SYSTEM    = UTC
MEAN_ELEMENT_THEORY = SGP/SGP4

EPOCH          = 2026-03-10T20:17:09.377088
MEAN_MOTION    = 15.82126491
ECCENTRICITY   = .00022679
INCLINATION    = 42.9985
RA_OF_ASC_NODE = 242.6849
ARG_OF_PERICENTER = 279.6488
MEAN_ANOMALY   = 80.4127

EPHEMERIS_TYPE = 0
CLASSIFICATION_TYPE = U
NORAD_CAT_ID   = 67908
ELEMENT_SET_NO = 999
REV_AT_EPOCH   = 385
BSTAR          = .97499616E-3
MEAN_MOTION_DOT = .210941E-2
MEAN_MOTION_DDOT = 0

CCSDS_OMM_VERS = 2.0
CREATION_DATE  = 
ORIGINATOR     = 

OBJECT_NAME    = STARLINK-36822
OBJECT_ID      = 2026-036F
CENTER_NAME    = EARTH
REF_FRAME      = TEME
TIME_SYSTEM    = UTC
MEAN_ELEMENT_THEORY = SGP/SGP4

EPOCH          = 2026-03-11T04:00:00.999936
MEAN_MOTION    = 15.79577029
ECCENTRICITY   = .0001456
INCLINATION    = 42.9993
RA_OF_ASC_NODE = 240.7107
ARG_OF_PERICENTER = 272.6993
MEAN_ANOMALY   = 121.8351

EPHEMERIS_TYPE = 0
CLASSIFICATION_TYPE = U
NORAD_CAT_ID   = 67909
ELEMENT_SET_NO = 999
REV_AT_EPOCH   = 388
BSTAR          = -.11964E-1
MEAN_MOTION_DOT = -.1953922E-1
MEAN_MOTION_DDOT = 0

